[{"cookie_dict": {"latitude": "28.5388479", "longitude": "77.2753728"}, "pincode": "110020"}, {"cookie_dict": {"latitude": "28.6217627", "longitude": "77.0558233"}, "pincode": "110059"}, {"cookie_dict": {"latitude": "30.9058885", "longitude": "75.8359645"}, "pincode": "141001"}, {"cookie_dict": {"latitude": "31.5181797", "longitude": "74.9793243"}, "pincode": "143413"}, {"cookie_dict": {"latitude": "26.872781", "longitude": "80.8820535"}, "pincode": "226003"}, {"cookie_dict": {"latitude": "25.2017349", "longitude": "82.52940650000001"}, "pincode": "231312"}, {"cookie_dict": {"latitude": "27.4966161", "longitude": "76.5025742"}, "pincode": "301001"}, {"cookie_dict": {"latitude": "26.8437601", "longitude": "75.8175392"}, "pincode": "302017"}, {"cookie_dict": {"latitude": "26.3022093", "longitude": "72.86336349999999"}, "pincode": "342001"}, {"cookie_dict": {"latitude": "23.024349", "longitude": "72.5301521"}, "pincode": "380015"}, {"cookie_dict": {"latitude": "22.4993346", "longitude": "72.9519622"}, "pincode": "388355"}, {"cookie_dict": {"latitude": "18.9995407", "longitude": "72.83970889999999"}, "pincode": "400012"}, {"cookie_dict": {"latitude": "18.7794744", "longitude": "73.3001233"}, "pincode": "410203"}, {"cookie_dict": {"latitude": "18.5574028", "longitude": "73.92830049999999"}, "pincode": "411014"}, {"cookie_dict": {"latitude": "19.8756639", "longitude": "75.3393162"}, "pincode": "431001"}, {"cookie_dict": {"latitude": "21.1813598", "longitude": "79.01364749999999"}, "pincode": "440013"}, {"cookie_dict": {"latitude": "22.7081955", "longitude": "75.8824422"}, "pincode": "452001"}, {"cookie_dict": {"latitude": "26.1748905", "longitude": "78.1450412"}, "pincode": "474001"}, {"cookie_dict": {"latitude": "23.2103329", "longitude": "79.8856824"}, "pincode": "482002"}, {"cookie_dict": {"latitude": "17.3916498", "longitude": "78.4124191"}, "pincode": "500008"}, {"cookie_dict": {"latitude": "13.6244611", "longitude": "79.4310052"}, "pincode": "517501"}, {"cookie_dict": {"latitude": "15.6661665", "longitude": "78.0880129"}, "pincode": "518002"}, {"cookie_dict": {"latitude": "16.4852649", "longitude": "80.6715317"}, "pincode": "520007"}, {"cookie_dict": {"latitude": "16.1150953", "longitude": "79.84087869999999"}, "pincode": "522646"}, {"cookie_dict": {"latitude": "14.4385918", "longitude": "80.109357"}, "pincode": "524002"}, {"cookie_dict": {"latitude": "17.7294211", "longitude": "83.3014319"}, "pincode": "530016"}, {"cookie_dict": {"latitude": "12.9441502", "longitude": "77.607623"}, "pincode": "560030"}, {"cookie_dict": {"latitude": "12.9566294", "longitude": "77.70468230000002"}, "pincode": "560037"}, {"cookie_dict": {"latitude": "12.8563032", "longitude": "74.83609179999999"}, "pincode": "575001"}, {"cookie_dict": {"latitude": "15.430665", "longitude": "74.9764024"}, "pincode": "580003"}, {"cookie_dict": {"latitude": "15.8596329", "longitude": "74.508242"}, "pincode": "590001"}, {"cookie_dict": {"latitude": "13.0731661", "longitude": "80.24080099999999"}, "pincode": "600031"}, {"cookie_dict": {"latitude": "12.8625011", "longitude": "79.59405439999999"}, "pincode": "631551"}, {"cookie_dict": {"latitude": "11.2264982", "longitude": "77.5275463"}, "pincode": "638056"}, {"cookie_dict": {"latitude": "11.0126517", "longitude": "77.0017465"}, "pincode": "641028"}, {"cookie_dict": {"latitude": "8.5323802", "longitude": "76.99310740000001"}, "pincode": "695013"}, {"cookie_dict": {"latitude": "22.6144156", "longitude": "88.35064679999999"}, "pincode": "711107"}, {"cookie_dict": {"latitude": "23.5633026", "longitude": "87.4108352"}, "pincode": "713212"}, {"cookie_dict": {"latitude": "22.4758234", "longitude": "87.1622344"}, "pincode": "721102"}, {"cookie_dict": {"latitude": "23.221851", "longitude": "87.1048702"}, "pincode": "722107"}, {"cookie_dict": {"latitude": "20.2726685", "longitude": "85.83582589999999"}, "pincode": "751001"}, {"cookie_dict": {"latitude": "19.9199434", "longitude": "85.3911146"}, "pincode": "752023"}, {"cookie_dict": {"latitude": "26.1437991", "longitude": "91.69064829999999"}, "pincode": "781011"}, {"cookie_dict": {"latitude": "25.7358504", "longitude": "93.642048"}, "pincode": "797112"}, {"cookie_dict": {"latitude": "25.6234486", "longitude": "85.1323779"}, "pincode": "800001"}, {"cookie_dict": {"latitude": "25.2560821", "longitude": "86.9849308"}, "pincode": "812001"}, {"cookie_dict": {"latitude": "24.5410295", "longitude": "84.13295950000001"}, "pincode": "824302"}, {"cookie_dict": {"latitude": "23.7508942", "longitude": "86.38328539999999"}, "pincode": "828117"}, {"cookie_dict": {"latitude": "23.3478733", "longitude": "85.30328109999999"}, "pincode": "834002"}, {"cookie_dict": {"latitude": "26.1517238", "longitude": "85.4117608"}, "pincode": "842001"}]